[{"OBJECT_NAME":"QIANFAN-101","OBJECT_ID":"2025-233L","EPOCH":"2026-03-09T23:40:08.087808","MEAN_MOTION":14.26740528,"ECCENTRICITY":0.00171671,"INCLINATION":88.9944,"RA_OF_ASC_NODE":51.9499,"ARG_OF_PERICENTER":106.3437,"MEAN_ANOMALY":253.9646,"EPHEMERIS_TYPE":0,"CLASSIFICATION_TYPE":"U","NORAD_CAT_ID":66043,"ELEMENT_SET_NO":999,"REV_AT_EPOCH":2048,"BSTAR":0.00028904417,"MEAN_MOTION_DOT":7.15e-6,"MEAN_MOTION_DDOT":0},{"OBJECT_NAME":"CZ-6A DEB","OBJECT_ID":"2024-140VQ","EPOCH":"2026-03-09T13:54:23.076000","MEAN_MOTION":14.53400807,"ECCENTRICITY":0.0112382,"INCLINATION":89.0602,"RA_OF_ASC_NODE":287.1571,"ARG_OF_PERICENTER":277.8473,"MEAN_ANOMALY":80.9991,"EPHEMERIS_TYPE":0,"CLASSIFICATION_TYPE":"U","NORAD_CAT_ID":61351,"ELEMENT_SET_NO":999,"REV_AT_EPOCH":8011,"BSTAR":0.00093302,"MEAN_MOTION_DOT":4.235e-5,"MEAN_MOTION_DDOT":0}]
